IRIDIUM 26              
1 24903U 97043A   25235.93170631  .00000287  00000+0  89875-4 0  9995
2 24903  86.3900  82.1486 0002001  93.0274 267.1153 14.37186651466477
IRIDIUM 22              
1 24907U 97043E   25235.84793939  .00000266  00000+0  84757-4 0  9992
2 24907  86.3907  85.7846 0002181  90.6844 269.4602 14.35994866466480
DUMMY MASS 1            
1 24925U 97048A   25235.91274146  .00000302  00000+0  30601-4 0  9999
2 24925  86.3317 104.0151 0004216 264.9091  95.1653 14.87032178515199
DUMMY MASS 2            
1 24926U 97048B   25235.88617475  .00000310  00000+0  31617-4 0  9999
2 24926  86.3320 105.6482 0005035 282.8117  77.2545 14.86784061514965
IRIDIUM 29              
1 24944U 97051A   25235.91632866  .00000300  00000+0  95552-4 0  9995
2 24944  86.3948 115.4969 0002350  83.3747 276.7717 14.36513461462991
IRIDIUM 33              
1 24946U 97051C   25235.90292072  .00000209  00000+0  66493-4 0  9997
2 24946  86.3861 114.7682 0006645 203.5642 156.5251 14.34927044462455
IRIDIUM 28              
1 24948U 97051E   25235.91664983  .00000249  00000+0  76714-4 0  9995
2 24948  86.3948 112.9727 0001812  97.6976 262.4427 14.37424181463579
IRIDIUM 36              
1 24967U 97056C   25235.73016340  .00000241  00000+0  73523-4 0  9996
2 24967  86.4016 144.6522 0002265  91.8249 268.3208 14.37651641461926
